[
    {
        "Altitude(m)": 604221.1992924054,
        "Argument of Periapsis(deg)": 0.0,
        "Eccentricity": 0.0,
        "Inclination(deg)": 60.0,
        "Latitude(deg)": 14.117217142366378,
        "Longitude(deg)": -136.66583000042024,
        "Mean Anomaly(deg)": 16.363599999999984,
        "RAAN(deg)": 315.0,
        "Satellite Name": "Test1 1387",
        "Satellite Number": 1387,
        "Semi-Major Axis(m)": 6980739.136638005,
        "Time(s)": 0
    },
    {
        "Altitude(m)": 604235.339971694,
        "Argument of Periapsis(deg)": 0.00010418945913296404,
        "Eccentricity": 0.0,
        "Inclination(deg)": 60.0,
        "Latitude(deg)": 14.651613580129577,
        "Longitude(deg)": -136.37738245350883,
        "Mean Anomaly(deg)": 16.983706145461838,
        "RAAN(deg)": 314.99957995086027,
        "Satellite Name": "Test1 1387",
        "Satellite Number": 1387,
        "Semi-Major Axis(m)": 6980739.136638005,
        "Time(s)": 10
    }
]